[{"OBJECT_NAME":"STARLINK-5750","OBJECT_ID":"2023-020AB","EPOCH":"2026-03-09T22:00:01.999584","MEAN_MOTION":15.1157446,"ECCENTRICITY":0.00010799,"INCLINATION":42.9996,"RA_OF_ASC_NODE":2.8154,"ARG_OF_PERICENTER":239.6654,"MEAN_ANOMALY":3.4658,"EPHEMERIS_TYPE":0,"CLASSIFICATION_TYPE":"U","NORAD_CAT_ID":55594,"ELEMENT_SET_NO":999,"REV_AT_EPOCH":577,"BSTAR":0.070030439,"MEAN_MOTION_DOT":0.01312742,"MEAN_MOTION_DDOT":0},{"OBJECT_NAME":"KUIPER-00275","OBJECT_ID":"2026-030AF","EPOCH":"2026-03-09T17:04:44.260032","MEAN_MOTION":15.34756533,"ECCENTRICITY":0.0009337,"INCLINATION":51.8837,"RA_OF_ASC_NODE":219.2226,"ARG_OF_PERICENTER":52.8442,"MEAN_ANOMALY":307.3396,"EPHEMERIS_TYPE":0,"CLASSIFICATION_TYPE":"U","NORAD_CAT_ID":67793,"ELEMENT_SET_NO":999,"REV_AT_EPOCH":509,"BSTAR":0.00095700084,"MEAN_MOTION_DOT":0.00032535,"MEAN_MOTION_DDOT":0}]
